NORAD_CAT_ID,OBJECT_NAME,OBJECT_TYPE,EPOCH,MEAN_MOTION,ECCENTRICITY,INCLINATION,RA_OF_ASC_NODE,ARG_OF_PERICENTER,MEAN_ANOMALY,BSTAR,MEAN_MOTION_DOT,MEAN_MOTION_DDOT,TLE_LINE0,TLE_LINE1,TLE_LINE2,SEMIMAJOR_AXIS,PERIOD,APOGEE,PERIGEE,DECAYED
53291.0,STARLINK-4166,PAYLOAD,2022-08-06 22:00:00,15.7325047,0.0001087,53.2197,337.0678,38.1048,186.9802,-0.00046607,-0.0006566,0.0,0 STARLINK-4166,1 53291U 22086BB  22218.91667824 -.00065660  00000-0 -46607-3 0  9997,2 53291  53.2197 337.0678 0001087  38.1048 186.9802 15.73250470  1305,6727.751,91.53,350.348,348.885,0.0
53291.0,STARLINK-4166,PAYLOAD,2022-08-07 04:40:14,15.73230851,0.0001431,53.2201,335.6906,49.0643,311.0501,-2.69e-05,-4.399e-05,0.0,0 STARLINK-4166,1 53291U 22086BB  22219.19460898 -.00004399  00000-0 -26900-4 0  9997,2 53291  53.2201 335.6906 0001431  49.0643 311.0501 15.73230851  2774,6727.807,91.531,350.635,348.709,0.0
53291.0,STARLINK-4166,PAYLOAD,2022-08-07 12:17:37,15.73207379,0.0001382,53.22,334.1185,52.3119,307.8026,-0.00014546,-0.0002099,0.0,0 STARLINK-4166,1 53291U 22086BB  22219.51224482 -.00020990  00000-0 -14546-3 0  9997,2 53291  53.2200 334.1185 0001382  52.3119 307.8026 15.73207379  2826,6727.874,91.533,350.6690000000001,348.809,0.0
53291.0,STARLINK-4166,PAYLOAD,2022-08-07 21:26:30,15.73229562,0.0001391,53.22,332.2323,56.4651,303.6502,0.00010649,0.00014369,0.0,0 STARLINK-4166,1 53291U 22086BB  22219.89340651  .00014369  00000-0  10649-3 0  9996,2 53291  53.2200 332.2323 0001391  56.4651 303.6502 15.73229562  3052,6727.811,91.531,350.612,348.74,0.0
53291.0,STARLINK-4166,PAYLOAD,2022-08-07 22:00:00,15.73282041,0.0001474,53.2195,332.1189,44.9947,86.9962,-0.00071007,-0.00099453,0.0,0 STARLINK-4166,1 53291U 22086BB  22219.91667824 -.00099453  00000-0 -71007-3 0  9997,2 53291  53.2195 332.1189 0001474  44.9947  86.9962 15.73282041  2899,6727.661,91.528,350.51800000000014,348.535,0.0
53291.0,STARLINK-4166,PAYLOAD,2022-08-08 06:00:00,15.73207642,0.0001334,53.2197,330.4678,55.9593,165.024,0.00050366,0.00070685,0.0,0 STARLINK-4166,1 53291U 22086BB  22220.25001157  .00070685  00000-0  50366-3 0  9996,2 53291  53.2197 330.4678 0001334  55.9593 165.0240 15.73207642  2947,6727.873000000001,91.533,350.636,348.841,0.0
53291.0,STARLINK-4166,PAYLOAD,2022-08-08 12:41:16,15.73271707,0.0001546,53.22,329.0894,49.1578,310.9576,0.00027104,0.00037706,0.0,0 STARLINK-4166,1 53291U 22086BB  22220.52866753  .00037706  00000-0  27104-3 0  9998,2 53291  53.2200 329.0894 0001546  49.1578 310.9576 15.73271707  3159,6727.691,91.529,350.596,348.516,0.0
53291.0,STARLINK-4166,PAYLOAD,2022-08-08 20:00:01,15.73253725,0.0001468,53.2199,327.5832,37.9689,248.8015,-0.0005322,-0.00074822,0.0,0 STARLINK-4166,1 53291U 22086BB  22220.83335648 -.00074822  00000-0 -53220-3 0  9996,2 53291  53.2199 327.5832 0001468  37.9689 248.8015 15.73253725  3036,6727.7419999999975,91.53,350.595,348.619,0.0
53291.0,STARLINK-4166,PAYLOAD,2022-08-08 22:00:00,15.73254794,0.000146,53.22,327.1703,39.5171,359.4305,-0.00076079,-0.00106303,0.0,0 STARLINK-4166,1 53291U 22086BB  22220.91667824 -.00106303  00000-0 -76079-3 0  9996,2 53291  53.2200 327.1703 0001460  39.5171 359.4305 15.73254794  1304,6727.739000000001,91.53,350.586,348.622,0.0
53291.0,STARLINK-4166,PAYLOAD,2022-08-09 14:00:01,15.73169402,0.0001686999999999,53.2201,323.8722,41.2344,175.5479,-0.00034662,-0.00048922,0.0,0 STARLINK-4166,1 53291U 22086BB  22221.58334491 -.00048922  00000-0 -34662-3 0  9995,2 53291  53.2201 323.8722 0001687  41.2344 175.5479 15.73169402  1302,6727.982,91.535,350.982,348.712,0.0
53291.0,STARLINK-4166,PAYLOAD,2022-08-09 22:00:00,15.73123329,0.000153,53.2198,322.2223,36.403,269.2316,8.5718e-05,0.00011387,0.0,0 STARLINK-4166,1 53291U 22086BB  22221.91667824  .00011387  00000-0  85718-4 0  9993,2 53291  53.2198 322.2223 0001530  36.4030 269.2316 15.73123329  3201,6728.114000000001,91.538,351.0080000000001,348.949,0.0
53291.0,STARLINK-4166,PAYLOAD,2022-08-10 14:00:01,15.73161353,0.0001616,53.2201,318.9249,36.4023,86.9369,0.00022394,0.00030872,0.0,0 STARLINK-4166,1 53291U 22086BB  22222.58334491  .00030872  00000-0  22394-3 0  9998,2 53291  53.2201 318.9249 0001616  36.4023  86.9369 15.73161353  1303,6728.005,91.535,350.958,348.783,0.0
53291.0,STARLINK-4166,PAYLOAD,2022-08-10 16:00:00,15.7314854,0.0001671,53.2203,318.513,34.8509,200.7146,0.00052713,0.00073849,0.0,0 STARLINK-4166,1 53291U 22086BB  22222.66667824  .00073849  00000-0  52713-3 0  9995,2 53291  53.2203 318.5130 0001671  34.8509 200.7146 15.73148540  3328,6728.042,91.536,351.031,348.783,0.0
53291.0,STARLINK-4166,PAYLOAD,2022-08-10 22:00:00,15.7320944,0.0001426,53.218,317.2699,33.9963,178.2622,-9.6458e-05,-0.0001414,0.0,0 STARLINK-4166,1 53291U 22086BB  22222.91667824 -.00014140  00000-0 -96458-4 0  9999,2 53291  53.2180 317.2699 0001426  33.9963 178.2622 15.73209440  1301,6727.868,91.533,350.6930000000001,348.774,0.0
53291.0,STARLINK-4166,PAYLOAD,2022-08-11 14:00:01,15.73222359,0.0001726,53.2185,313.9769,31.9861,358.201,-0.00014105,-0.00020388,0.0,0 STARLINK-4166,1 53291U 22086BB  22223.58334491 -.00020388  00000-0 -14105-3 0  9993,2 53291  53.2185 313.9769 0001726  31.9861 358.2010 15.73222359  1300,6727.831,91.532,350.858,348.535,0.0
53291.0,STARLINK-4166,PAYLOAD,2022-08-11 22:00:00,15.73258851,0.0001703,53.2179,312.3265,30.7603,88.3645,-0.00083415,-0.00116381,0.0,0 STARLINK-4166,1 53291U 22086BB  22223.91667824 -.00116381  00000-0 -83415-3 0  9998,2 53291  53.2179 312.3265 0001703  30.7603  88.3645 15.73258851  3520,6727.727,91.53,350.73800000000006,348.44699999999995,0.0
53291.0,STARLINK-4166,PAYLOAD,2022-08-12 04:00:00,15.73189862,0.0001585,53.2179,311.0883,36.7724,59.1124,0.00030946,0.00043015,0.0,0 STARLINK-4166,1 53291U 22086BB  22224.16667824  .00043015  00000-0  30946-3 0  9998,2 53291  53.2179 311.0883 0001585  36.7724  59.1124 15.73189862  3567,6727.924,91.534,350.855,348.723,0.0
53291.0,STARLINK-4166,PAYLOAD,2022-08-12 14:00:01,15.73170221,0.0001827,53.218,309.0289,29.5246,267.5502,0.00040246,0.0005617,0.0,0 STARLINK-4166,1 53291U 22086BB  22224.58334491  .00056170  00000-0  40246-3 0  9995,2 53291  53.2180 309.0289 0001827  29.5246 267.5502 15.73170221  1308,6727.98,91.535,351.074,348.616,0.0
53291.0,STARLINK-4166,PAYLOAD,2022-08-12 20:00:01,15.73244901,0.0001813,53.2178,307.7911,27.9993,245.8123,-0.00042619,-0.00060126,0.0,0 STARLINK-4166,1 53291U 22086BB  22224.83335648 -.00060126  00000-0 -42619-3 0  9992,2 53291  53.2178 307.7911 0001813  27.9993 245.8123 15.73244901  3664,6727.767,91.531,350.852,348.412,0.0
53291.0,STARLINK-4166,PAYLOAD,2022-08-12 22:00:01,15.73254461,0.00018,53.218,307.3783,30.3555,355.6929,-0.0006764,-0.00094713,0.0,0 STARLINK-4166,1 53291U 22086BB  22224.91668981 -.00094713  00000-0 -67640-3 0  9990,2 53291  53.2180 307.3783 0001800  30.3555 355.6929 15.73254461  1303,6727.74,91.53,350.816,348.394,0.0
53291.0,STARLINK-4166,PAYLOAD,2022-08-13 14:00:01,15.7312021,0.000231,53.218,304.0807,39.7609,164.0604,0.00037365,0.00051968,0.0,0 STARLINK-4166,1 53291U 22086BB  22225.58334491  .00051968  00000-0  37365-3 0  9994,2 53291  53.2180 304.0807 0002310  39.7609 164.0604 15.73120210  1300,6728.123000000001,91.538,351.542,348.43300000000005,0.0
53291.0,STARLINK-4166,PAYLOAD,2022-08-13 22:00:00,15.73169262,0.0002171,53.2175,302.43,41.5696,251.1039,1.7229e-05,1.794e-05,0.0,0 STARLINK-4166,1 53291U 22086BB  22225.91667824  .00001794  00000-0  17229-4 0  9990,2 53291  53.2175 302.4300 0002171  41.5696 251.1039 15.73169262  3836,6727.983,91.535,351.30800000000005,348.38699999999994,0.0
53291.0,STARLINK-4166,PAYLOAD,2022-08-14 14:00:01,15.732398300000002,0.0002286,53.2173,299.1327,38.616,71.9369,-5.5897e-05,-8.473e-05,0.0,0 STARLINK-4166,1 53291U 22086BB  22226.58334491 -.00008473  00000-0 -55897-4 0  9991,2 53291  53.2173 299.1327 0002286  38.6160  71.9369 15.73239830  1308,6727.781999999997,91.531,351.185,348.1090000000001,0.0
53291.0,STARLINK-4166,PAYLOAD,2022-08-14 22:00:00,15.73215812,0.0002082,53.2175,297.4815,35.8322,163.7038,8.906e-05,0.00011905,0.0,0 STARLINK-4166,1 53291U 22086BB  22226.91667824  .00011905  00000-0  89060-4 0  9998,2 53291  53.2175 297.4815 0002082  35.8322 163.7038 15.73215812  1303,6727.85,91.532,351.116,348.314,0.0
53291.0,STARLINK-4166,PAYLOAD,2022-08-15 14:00:01,15.73169861,0.000221,53.2175,294.1838,29.1283,348.2887,0.00040272,0.00056208,0.0,0 STARLINK-4166,1 53291U 22086BB  22227.58334491  .00056208  00000-0  40272-3 0  9999,2 53291  53.2175 294.1838 0002210  29.1283 348.2887 15.73169861  1301,6727.981,91.535,351.333,348.3590000000001,0.0
53291.0,STARLINK-4166,PAYLOAD,2022-08-15 22:00:00,15.73206979,0.0001971,53.2172,292.5326,26.2868,80.0537,-0.00035799,-0.0005057999999999,0.0,0 STARLINK-4166,1 53291U 22086BB  22227.91667824 -.00050580  00000-0 -35799-3 0  9992,2 53291  53.2172 292.5326 0001971  26.2868  80.0537 15.73206979  1307,6727.875,91.533,351.066,348.414,0.0
53291.0,STARLINK-4166,PAYLOAD,2022-08-16 06:00:02,15.73190186,0.0001911999999999,53.2172,290.8831,27.8554,167.4593,0.00021741,0.00029989,0.0,0 STARLINK-4166,1 53291U 22086BB  22228.25002315  .00029989  00000-0  21741-3 0  9997,2 53291  53.2172 290.8831 0001912  27.8554 167.4593 15.73190186  4209,6727.9230000000025,91.534,351.075,348.50199999999984,0.0
53291.0,STARLINK-4166,PAYLOAD,2022-08-16 14:00:01,15.73195909,0.0002174999999999,53.2171,289.2355,22.8782,261.2978,0.0003356,0.00046735,0.0,0 STARLINK-4166,1 53291U 22086BB  22228.58334491  .00046735  00000-0  33560-3 0  9996,2 53291  53.2171 289.2355 0002175  22.8782 261.2978 15.73195909  1307,6727.906999999997,91.533,351.235,348.309,0.0
53291.0,STARLINK-4166,PAYLOAD,2022-08-16 22:00:00,15.73207452,0.0001936,53.2173,287.584,20.9886,352.1417,-0.00014629,-0.00021108,0.0,0 STARLINK-4166,1 53291U 22086BB  22228.91667824 -.00021108  00000-0 -14629-3 0  9996,2 53291  53.2173 287.5840 0001936  20.9886 352.1417 15.73207452  1302,6727.874,91.533,351.041,348.436,0.0
